CCSDS_OMM_VERS = 2.0
CREATION_DATE  = 
ORIGINATOR     = 

OBJECT_NAME    = STARLINK-36319
OBJECT_ID      = 2026-038K
CENTER_NAME    = EARTH
REF_FRAME      = TEME
TIME_SYSTEM    = UTC
MEAN_ELEMENT_THEORY = SGP/SGP4

EPOCH          = 2026-03-05T14:00:01.999872
MEAN_MOTION    = 16.01395731
ECCENTRICITY   = .00012165
INCLINATION    = 97.2750
RA_OF_ASC_NODE = 74.5443
ARG_OF_PERICENTER = 93.5253
MEAN_ANOMALY   = 168.1741

EPHEMERIS_TYPE = 0
CLASSIFICATION_TYPE = U
NORAD_CAT_ID   = 67970
ELEMENT_SET_NO = 999
REV_AT_EPOCH   = 250
BSTAR          = -.27240336E-2
MEAN_MOTION_DOT = -.1484085E-1
MEAN_MOTION_DDOT = .69158771E-3

CCSDS_OMM_VERS = 2.0
CREATION_DATE  = 
ORIGINATOR     = 

OBJECT_NAME    = STARLINK-36710
OBJECT_ID      = 2026-038L
CENTER_NAME    = EARTH
REF_FRAME      = TEME
TIME_SYSTEM    = UTC
MEAN_ELEMENT_THEORY = SGP/SGP4

EPOCH          = 2026-03-05T14:00:01.999872
MEAN_MOTION    = 16.01666932
ECCENTRICITY   = .00010906
INCLINATION    = 97.2748
RA_OF_ASC_NODE = 74.5470
ARG_OF_PERICENTER = 108.3957
MEAN_ANOMALY   = 159.0386

EPHEMERIS_TYPE = 0
CLASSIFICATION_TYPE = U
NORAD_CAT_ID   = 67971
ELEMENT_SET_NO = 999
REV_AT_EPOCH   = 253
BSTAR          = -.26353014E-2
MEAN_MOTION_DOT = -.1458616E-1
MEAN_MOTION_DDOT = .67180432E-3

CCSDS_OMM_VERS = 2.0
CREATION_DATE  = 
ORIGINATOR     = 

OBJECT_NAME    = STARLINK-36894
OBJECT_ID      = 2026-038M
CENTER_NAME    = EARTH
REF_FRAME      = TEME
TIME_SYSTEM    = UTC
MEAN_ELEMENT_THEORY = SGP/SGP4

EPOCH          = 2026-03-05T14:00:01.999872
MEAN_MOTION    = 16.01807307
ECCENTRICITY   = .00011734
INCLINATION    = 97.2744
RA_OF_ASC_NODE = 74.5481
ARG_OF_PERICENTER = 90.8869
MEAN_ANOMALY   = 179.1282

EPHEMERIS_TYPE = 0
CLASSIFICATION_TYPE = U
NORAD_CAT_ID   = 67972
ELEMENT_SET_NO = 999
REV_AT_EPOCH   = 253
BSTAR          = -.2639332E-2
MEAN_MOTION_DOT = -.1472591E-1
MEAN_MOTION_DDOT = .6849142E-3

CCSDS_OMM_VERS = 2.0
CREATION_DATE  = 
ORIGINATOR     = 

OBJECT_NAME    = STARLINK-36900
OBJECT_ID      = 2026-038N
CENTER_NAME    = EARTH
REF_FRAME      = TEME
TIME_SYSTEM    = UTC
MEAN_ELEMENT_THEORY = SGP/SGP4

EPOCH          = 2026-03-05T14:00:01.999872
MEAN_MOTION    = 16.02061581
ECCENTRICITY   = .00010956
INCLINATION    = 97.2744
RA_OF_ASC_NODE = 74.5500
ARG_OF_PERICENTER = 103.5402
MEAN_ANOMALY   = 171.6441

EPHEMERIS_TYPE = 0
CLASSIFICATION_TYPE = U
NORAD_CAT_ID   = 67973
ELEMENT_SET_NO = 999
REV_AT_EPOCH   = 253
BSTAR          = -.25838087E-2
MEAN_MOTION_DOT = -.1463089E-1
MEAN_MOTION_DDOT = .67872232E-3

CCSDS_OMM_VERS = 2.0
CREATION_DATE  = 
ORIGINATOR     = 

OBJECT_NAME    = STARLINK-36901
OBJECT_ID      = 2026-038P
CENTER_NAME    = EARTH
REF_FRAME      = TEME
TIME_SYSTEM    = UTC
MEAN_ELEMENT_THEORY = SGP/SGP4

EPOCH          = 2026-03-05T14:00:01.999872
MEAN_MOTION    = 16.01925280
ECCENTRICITY   = .00011232
INCLINATION    = 97.2744
RA_OF_ASC_NODE = 74.5487
ARG_OF_PERICENTER = 87.1163
MEAN_ANOMALY   = 185.3581

EPHEMERIS_TYPE = 0
CLASSIFICATION_TYPE = U
NORAD_CAT_ID   = 67974
ELEMENT_SET_NO = 999
REV_AT_EPOCH   = 253
BSTAR          = -.26104108E-2
MEAN_MOTION_DOT = -.146649E-1
MEAN_MOTION_DDOT = .68058335E-3

CCSDS_OMM_VERS = 2.0
CREATION_DATE  = 
ORIGINATOR     = 

OBJECT_NAME    = STARLINK-36883
OBJECT_ID      = 2026-038Q
CENTER_NAME    = EARTH
REF_FRAME      = TEME
TIME_SYSTEM    = UTC
MEAN_ELEMENT_THEORY = SGP/SGP4

EPOCH          = 2026-03-05T14:00:01.999872
MEAN_MOTION    = 16.02589752
ECCENTRICITY   = .0001132
INCLINATION    = 97.2738
RA_OF_ASC_NODE = 74.5545
ARG_OF_PERICENTER = 84.3288
MEAN_ANOMALY   = 201.3190

EPHEMERIS_TYPE = 0
CLASSIFICATION_TYPE = U
NORAD_CAT_ID   = 67975
ELEMENT_SET_NO = 999
REV_AT_EPOCH   = 253
BSTAR          = -.24980515E-2
MEAN_MOTION_DOT = -.1458742E-1
MEAN_MOTION_DDOT = .6791506E-3

CCSDS_OMM_VERS = 2.0
CREATION_DATE  = 
ORIGINATOR     = 

OBJECT_NAME    = STARLINK-36880
OBJECT_ID      = 2026-038R
CENTER_NAME    = EARTH
REF_FRAME      = TEME
TIME_SYSTEM    = UTC
MEAN_ELEMENT_THEORY = SGP/SGP4

EPOCH          = 2026-03-05T14:00:01.999872
MEAN_MOTION    = 16.02195808
ECCENTRICITY   = .00011345
INCLINATION    = 97.2741
RA_OF_ASC_NODE = 74.5511
ARG_OF_PERICENTER = 93.5677
MEAN_ANOMALY   = 184.2513

EPHEMERIS_TYPE = 0
CLASSIFICATION_TYPE = U
NORAD_CAT_ID   = 67976
ELEMENT_SET_NO = 999
REV_AT_EPOCH   = 253
BSTAR          = -.2568065E-2
MEAN_MOTION_DOT = -.1465528E-1
MEAN_MOTION_DDOT = .68188826E-3

CCSDS_OMM_VERS = 2.0
CREATION_DATE  = 
ORIGINATOR     = 

OBJECT_NAME    = STARLINK-36904
OBJECT_ID      = 2026-038S
CENTER_NAME    = EARTH
REF_FRAME      = TEME
TIME_SYSTEM    = UTC
MEAN_ELEMENT_THEORY = SGP/SGP4

EPOCH          = 2026-03-05T14:00:01.999872
MEAN_MOTION    = 16.02453548
ECCENTRICITY   = .0001199
INCLINATION    = 97.2737
RA_OF_ASC_NODE = 74.5530
ARG_OF_PERICENTER = 83.7952
MEAN_ANOMALY   = 199.2330

EPHEMERIS_TYPE = 0
CLASSIFICATION_TYPE = U
NORAD_CAT_ID   = 67977
ELEMENT_SET_NO = 999
REV_AT_EPOCH   = 253
BSTAR          = -.25111118E-2
MEAN_MOTION_DOT = -.1454822E-1
MEAN_MOTION_DDOT = .67469161E-3

CCSDS_OMM_VERS = 2.0
CREATION_DATE  = 
ORIGINATOR     = 

OBJECT_NAME    = STARLINK-36364
OBJECT_ID      = 2026-038T
CENTER_NAME    = EARTH
REF_FRAME      = TEME
TIME_SYSTEM    = UTC
MEAN_ELEMENT_THEORY = SGP/SGP4

EPOCH          = 2026-03-05T14:00:01.999872
MEAN_MOTION    = 16.02904966
ECCENTRICITY   = .00010659
INCLINATION    = 97.2733
RA_OF_ASC_NODE = 74.5570
ARG_OF_PERICENTER = 105.9657
MEAN_ANOMALY   = 185.8055

EPHEMERIS_TYPE = 0
CLASSIFICATION_TYPE = U
NORAD_CAT_ID   = 67978
ELEMENT_SET_NO = 999
REV_AT_EPOCH   = 253
BSTAR          = -.24355603E-2
MEAN_MOTION_DOT = -.144883E-1
MEAN_MOTION_DDOT = .67308312E-3

CCSDS_OMM_VERS = 2.0
CREATION_DATE  = 
ORIGINATOR     = 

OBJECT_NAME    = STARLINK-36359
OBJECT_ID      = 2026-038U
CENTER_NAME    = EARTH
REF_FRAME      = TEME
TIME_SYSTEM    = UTC
MEAN_ELEMENT_THEORY = SGP/SGP4

EPOCH          = 2026-03-05T14:00:01.999872
MEAN_MOTION    = 16.02302122
ECCENTRICITY   = .0001082
INCLINATION    = 97.2738
RA_OF_ASC_NODE = 74.5515
ARG_OF_PERICENTER = 100.9592
MEAN_ANOMALY   = 179.0736

EPHEMERIS_TYPE = 0
CLASSIFICATION_TYPE = U
NORAD_CAT_ID   = 67979
ELEMENT_SET_NO = 999
REV_AT_EPOCH   = 253
BSTAR          = -.25386915E-2
MEAN_MOTION_DOT = -.1457827E-1
MEAN_MOTION_DDOT = .67608372E-3

CCSDS_OMM_VERS = 2.0
CREATION_DATE  = 
ORIGINATOR     = 

OBJECT_NAME    = STARLINK-36882
OBJECT_ID      = 2026-038V
CENTER_NAME    = EARTH
REF_FRAME      = TEME
TIME_SYSTEM    = UTC
MEAN_ELEMENT_THEORY = SGP/SGP4

EPOCH          = 2026-03-05T14:00:01.999872
MEAN_MOTION    = 16.02751255
ECCENTRICITY   = .00011259
INCLINATION    = 97.2734
RA_OF_ASC_NODE = 74.5556
ARG_OF_PERICENTER = 89.6086
MEAN_ANOMALY   = 199.2526

EPHEMERIS_TYPE = 0
CLASSIFICATION_TYPE = U
NORAD_CAT_ID   = 67980
ELEMENT_SET_NO = 999
REV_AT_EPOCH   = 253
BSTAR          = -.24488347E-2
MEAN_MOTION_DOT = -.1443741E-1
MEAN_MOTION_DDOT = .6674996E-3

CCSDS_OMM_VERS = 2.0
CREATION_DATE  = 
ORIGINATOR     = 

OBJECT_NAME    = STARLINK-36874
OBJECT_ID      = 2026-038W
CENTER_NAME    = EARTH
REF_FRAME      = TEME
TIME_SYSTEM    = UTC
MEAN_ELEMENT_THEORY = SGP/SGP4

EPOCH          = 2026-03-05T14:00:01.999872
MEAN_MOTION    = 16.02990104
ECCENTRICITY   = .0001097
INCLINATION    = 97.2734
RA_OF_ASC_NODE = 74.5578
ARG_OF_PERICENTER = 92.0988
MEAN_ANOMALY   = 201.8485

EPHEMERIS_TYPE = 0
CLASSIFICATION_TYPE = U
NORAD_CAT_ID   = 67981
ELEMENT_SET_NO = 999
REV_AT_EPOCH   = 253
BSTAR          = -.23799759E-2
MEAN_MOTION_DOT = -.142316E-1
MEAN_MOTION_DDOT = .65177073E-3

